{
"type": "FeatureCollection",
"name": "610100",
"features": [
{ "type": "Feature", "properties": { "id": "610111", "name": "灞桥区", "site": "www.poi86.com" }, "geometry": { "type": "MultiPolygon", "coordinates": [ [ [ [ 109.025924, 34.252717 ], [ 109.025553, 34.255149 ], [ 109.025108, 34.256763 ], [ 109.024484, 34.258673 ], [ 109.023882, 34.260226 ], [ 109.022153, 34.260225 ], [ 109.020672, 34.260419 ], [ 109.020433, 34.260451 ], [ 109.02023, 34.26109 ], [ 109.018179, 34.261105 ], [ 109.018108, 34.261746 ], [ 109.017993, 34.262561 ], [ 109.017967, 34.262943 ], [ 109.017409, 34.262904 ], [ 109.017324, 34.261258 ], [ 109.015743, 34.260935 ], [ 109.015454, 34.261688 ], [ 109.014974, 34.261779 ], [ 109.01494, 34.262473 ], [ 109.014942, 34.262545 ], [ 109.015401, 34.262557 ], [ 109.01538, 34.262885 ], [ 109.014675, 34.262887 ], [ 109.011341, 34.262977 ], [ 109.011363, 34.26311 ], [ 109.012965, 34.263043 ], [ 109.012929, 34.263651 ], [ 109.012922, 34.263779 ], [ 109.015177, 34.263798 ], [ 109.015188, 34.263532 ], [ 109.020365, 34.263488 ], [ 109.020516, 34.264118 ], [ 109.020546, 34.264286 ], [ 109.020958, 34.265139 ], [ 109.02181, 34.266618 ], [ 109.021242, 34.268069 ], [ 109.02097, 34.269005 ], [ 109.02068, 34.270051 ], [ 109.020502, 34.270957 ], [ 109.020335, 34.27248 ], [ 109.020286, 34.27327 ], [ 109.020241, 34.273499 ], [ 109.020235, 34.27369 ], [ 109.020226, 34.273734 ], [ 109.020231, 34.273783 ], [ 109.020194, 34.2749 ], [ 109.020054, 34.276816 ], [ 109.020008, 34.278834 ], [ 109.019846, 34.28332 ], [ 109.019774, 34.284769 ], [ 109.019634, 34.286347 ], [ 109.019446, 34.287029 ], [ 109.019128, 34.287907 ], [ 109.018156, 34.289543 ], [ 109.017605, 34.290281 ], [ 109.016862, 34.290976 ], [ 109.016297, 34.291403 ], [ 109.015512, 34.29187 ], [ 109.014624, 34.292252 ], [ 109.013726, 34.292514 ], [ 109.013007, 34.292645 ], [ 109.012469, 34.292691 ], [ 109.010412, 34.29268 ], [ 109.007578, 34.292638 ], [ 109.003329, 34.290755 ], [ 109.002577, 34.29055 ], [ 109.001847, 34.290459 ], [ 108.999795, 34.290321 ], [ 108.998427, 34.289729 ], [ 108.998535, 34.292164 ], [ 108.994092, 34.2921 ], [ 108.99406, 34.294977 ], [ 108.990952, 34.295023 ], [ 108.990931, 34.295106 ], [ 108.990935, 34.295139 ], [ 108.990931, 34.295187 ], [ 108.990943, 34.29544 ], [ 108.996106, 34.295415 ], [ 108.996106, 34.297871 ], [ 109.002759, 34.297871 ], [ 109.002393, 34.301229 ], [ 109.002474, 34.301467 ], [ 109.002735, 34.301598 ], [ 109.004327, 34.301754 ], [ 109.004301, 34.303139 ], [ 109.005215, 34.303217 ], [ 109.005189, 34.303843 ], [ 109.013409, 34.307195 ], [ 109.014024, 34.30743 ], [ 109.014744, 34.307576 ], [ 109.018208, 34.307502 ], [ 109.018642, 34.307648 ], [ 109.019076, 34.308007 ], [ 109.019588, 34.308299 ], [ 109.026594, 34.308804 ], [ 109.027462, 34.30902 ], [ 109.028469, 34.309742 ], [ 109.028686, 34.309959 ], [ 109.029311, 34.310953 ], [ 109.029254, 34.311141 ], [ 109.029086, 34.311273 ], [ 109.026411, 34.312313 ], [ 109.026354, 34.312457 ], [ 109.026603, 34.312617 ], [ 109.027473, 34.31309 ], [ 109.027943, 34.313146 ], [ 109.035119, 34.313285 ], [ 109.035336, 34.313428 ], [ 109.035406, 34.313719 ], [ 109.034685, 34.31697 ], [ 109.034685, 34.317404 ], [ 109.034903, 34.317836 ], [ 109.039231, 34.323416 ], [ 109.034345, 34.327175 ], [ 109.029751, 34.329732 ], [ 109.020174, 34.33454 ], [ 109.018094, 34.3361 ], [ 109.015321, 34.337919 ], [ 109.013371, 34.339652 ], [ 109.012678, 34.340086 ], [ 109.011074, 34.340735 ], [ 109.009601, 34.341862 ], [ 109.00817, 34.343378 ], [ 109.007434, 34.345199 ], [ 109.006524, 34.348535 ], [ 109.006147, 34.35134 ], [ 109.005726, 34.354696 ], [ 109.005527, 34.358761 ], [ 109.005662, 34.359616 ], [ 109.006004, 34.36058 ], [ 109.006092, 34.361232 ], [ 109.005979, 34.366434 ], [ 109.005999, 34.36998 ], [ 109.006168, 34.372809 ], [ 109.00676, 34.37511 ], [ 109.006678, 34.3766 ], [ 109.006068, 34.379858 ], [ 109.005353, 34.381855 ], [ 109.005093, 34.383112 ], [ 109.005223, 34.384715 ], [ 109.006228, 34.38763 ], [ 109.006512, 34.389468 ], [ 109.006851, 34.392733 ], [ 109.006456, 34.395689 ], [ 109.006288, 34.397799 ], [ 109.006597, 34.39977 ], [ 109.007808, 34.40219 ], [ 109.00868, 34.404695 ], [ 109.008623, 34.409031 ], [ 109.008989, 34.411114 ], [ 109.008708, 34.413618 ], [ 109.007948, 34.415222 ], [ 109.007638, 34.417418 ], [ 109.007807, 34.418798 ], [ 109.007666, 34.419922 ], [ 109.008145, 34.420627 ], [ 109.008961, 34.421274 ], [ 109.009158, 34.422091 ], [ 109.009046, 34.423582 ], [ 109.009636, 34.424539 ], [ 109.01065, 34.425271 ], [ 109.012873, 34.426256 ], [ 109.014365, 34.428086 ], [ 109.014844, 34.429184 ], [ 109.01597, 34.429831 ], [ 109.017968, 34.430732 ], [ 109.019207, 34.431942 ], [ 109.019629, 34.433378 ], [ 109.019939, 34.434447 ], [ 109.020473, 34.436952 ], [ 109.021374, 34.438651 ], [ 109.022207, 34.438919 ], [ 109.031627, 34.442786 ], [ 109.040937, 34.446907 ], [ 109.050042, 34.449564 ], [ 109.056477, 34.451747 ], [ 109.059654, 34.452912 ], [ 109.060791, 34.453342 ], [ 109.062458, 34.454219 ], [ 109.0631, 34.455004 ], [ 109.064238, 34.454475 ], [ 109.068006, 34.452519 ], [ 109.070142, 34.449811 ], [ 109.074171, 34.445135 ], [ 109.076342, 34.441318 ], [ 109.078452, 34.437519 ], [ 109.07906, 34.436655 ], [ 109.079538, 34.436196 ], [ 109.079677, 34.436156 ], [ 109.0813, 34.435621 ], [ 109.083948, 34.435639 ], [ 109.08748, 34.43525 ], [ 109.091275, 34.434487 ], [ 109.09131, 34.434476 ], [ 109.095035, 34.434227 ], [ 109.098187, 34.434445 ], [ 109.101964, 34.433639 ], [ 109.102137, 34.433454 ], [ 109.102676, 34.432304 ], [ 109.103501, 34.431499 ], [ 109.104109, 34.430753 ], [ 109.104803, 34.430468 ], [ 109.105836, 34.430293 ], [ 109.106739, 34.430289 ], [ 109.108328, 34.430502 ], [ 109.110621, 34.431349 ], [ 109.11201, 34.431922 ], [ 109.113191, 34.432714 ], [ 109.114928, 34.433617 ], [ 109.116446, 34.433956 ], [ 109.117558, 34.433892 ], [ 109.118252, 34.433711 ], [ 109.119008, 34.433312 ], [ 109.119486, 34.432622 ], [ 109.120241, 34.43193 ], [ 109.120979, 34.430322 ], [ 109.12124, 34.429604 ], [ 109.122612, 34.426802 ], [ 109.123619, 34.425385 ], [ 109.125563, 34.423801 ], [ 109.126579, 34.423442 ], [ 109.124643, 34.422426 ], [ 109.122637, 34.420829 ], [ 109.121474, 34.420142 ], [ 109.120398, 34.4195 ], [ 109.120311, 34.418727 ], [ 109.12097, 34.417821 ], [ 109.122343, 34.41707 ], [ 109.122707, 34.415879 ], [ 109.12256, 34.41468 ], [ 109.121769, 34.41391 ], [ 109.120154, 34.412766 ], [ 109.119104, 34.409877 ], [ 109.118566, 34.407496 ], [ 109.117489, 34.40588 ], [ 109.116612, 34.404115 ], [ 109.115544, 34.402539 ], [ 109.114667, 34.401991 ], [ 109.113747, 34.400489 ], [ 109.113729, 34.399381 ], [ 109.114616, 34.398123 ], [ 109.11432, 34.396554 ], [ 109.113582, 34.395568 ], [ 109.110413, 34.394288 ], [ 109.107174, 34.393278 ], [ 109.105932, 34.393279 ], [ 109.104518, 34.392185 ], [ 109.102946, 34.391849 ], [ 109.101018, 34.390831 ], [ 109.099342, 34.389511 ], [ 109.097693, 34.388532 ], [ 109.096199, 34.388176 ], [ 109.095574, 34.38614 ], [ 109.094992, 34.385395 ], [ 109.093803, 34.384 ], [ 109.093577, 34.381951 ], [ 109.093915, 34.38076 ], [ 109.094202, 34.380026 ], [ 109.099803, 34.378663 ], [ 109.100992, 34.378207 ], [ 109.101391, 34.377346 ], [ 109.102277, 34.375961 ], [ 109.10252, 34.37487 ], [ 109.102911, 34.373193 ], [ 109.103129, 34.3721 ], [ 109.103537, 34.371068 ], [ 109.103867, 34.370368 ], [ 109.104162, 34.369937 ], [ 109.104336, 34.369397 ], [ 109.103719, 34.368028 ], [ 109.102885, 34.366569 ], [ 109.101643, 34.365996 ], [ 109.101365, 34.365471 ], [ 109.101374, 34.365147 ], [ 109.102442, 34.364611 ], [ 109.102399, 34.363856 ], [ 109.101748, 34.362956 ], [ 109.101618, 34.362389 ], [ 109.101896, 34.361816 ], [ 109.101931, 34.361294 ], [ 109.101027, 34.360816 ], [ 109.099074, 34.36016 ], [ 109.097502, 34.358869 ], [ 109.096912, 34.357586 ], [ 109.096738, 34.356208 ], [ 109.097051, 34.355474 ], [ 109.098909, 34.354997 ], [ 109.09923, 34.354118 ], [ 109.100125, 34.353709 ], [ 109.101063, 34.352867 ], [ 109.101141, 34.352394 ], [ 109.100298, 34.351487 ], [ 109.099065, 34.350648 ], [ 109.098449, 34.34888 ], [ 109.097858, 34.346349 ], [ 109.097745, 34.345565 ], [ 109.098075, 34.345178 ], [ 109.099065, 34.345008 ], [ 109.100497, 34.344647 ], [ 109.100993, 34.343906 ], [ 109.103025, 34.342769 ], [ 109.105317, 34.342532 ], [ 109.107852, 34.342745 ], [ 109.110101, 34.342762 ], [ 109.110552, 34.342904 ], [ 109.111151, 34.343828 ], [ 109.111368, 34.344113 ], [ 109.111855, 34.344174 ], [ 109.114729, 34.343769 ], [ 109.115102, 34.343502 ], [ 109.115293, 34.342742 ], [ 109.115589, 34.342149 ], [ 109.11617, 34.341974 ], [ 109.118446, 34.342313 ], [ 109.118984, 34.342845 ], [ 109.119643, 34.343252 ], [ 109.120781, 34.343305 ], [ 109.122205, 34.342951 ], [ 109.122517, 34.342939 ], [ 109.122699, 34.343234 ], [ 109.123264, 34.343778 ], [ 109.124314, 34.343765 ], [ 109.126285, 34.343512 ], [ 109.126606, 34.34334 ], [ 109.127197, 34.342863 ], [ 109.127353, 34.342492 ], [ 109.127344, 34.34206 ], [ 109.127197, 34.341407 ], [ 109.127379, 34.340915 ], [ 109.127762, 34.340617 ], [ 109.129038, 34.340396 ], [ 109.129471, 34.340258 ], [ 109.129758, 34.339654 ], [ 109.130088, 34.338859 ], [ 109.131034, 34.338001 ], [ 109.132797, 34.337385 ], [ 109.133752, 34.336892 ], [ 109.135497, 34.336671 ], [ 109.135558, 34.336415 ], [ 109.134793, 34.335269 ], [ 109.133578, 34.333248 ], [ 109.133188, 34.331879 ], [ 109.131668, 34.331356 ], [ 109.129255, 34.331082 ], [ 109.128438, 34.330631 ], [ 109.128378, 34.329649 ], [ 109.129272, 34.32823 ], [ 109.128587, 34.326231 ], [ 109.128256, 34.325086 ], [ 109.128396, 34.323654 ], [ 109.128916, 34.322601 ], [ 109.12962, 34.321931 ], [ 109.129576, 34.321445 ], [ 109.129324, 34.319554 ], [ 109.130106, 34.318795 ], [ 109.130887, 34.31759 ], [ 109.131121, 34.316241 ], [ 109.132232, 34.314751 ], [ 109.133275, 34.313618 ], [ 109.134899, 34.312895 ], [ 109.135497, 34.312695 ], [ 109.136696, 34.312594 ], [ 109.137607, 34.312165 ], [ 109.140073, 34.309977 ], [ 109.141106, 34.309303 ], [ 109.141557, 34.309235 ], [ 109.143189, 34.309361 ], [ 109.145351, 34.309479 ], [ 109.146995, 34.309732 ], [ 109.147699, 34.310139 ], [ 109.14907, 34.310261 ], [ 109.151004, 34.309988 ], [ 109.153088, 34.309974 ], [ 109.154812, 34.309816 ], [ 109.155481, 34.309559 ], [ 109.155763, 34.308349 ], [ 109.156286, 34.307822 ], [ 109.156734, 34.307627 ], [ 109.157529, 34.307694 ], [ 109.158426, 34.307861 ], [ 109.159134, 34.30769 ], [ 109.159685, 34.306982 ], [ 109.16053, 34.306717 ], [ 109.161131, 34.306858 ], [ 109.161671, 34.307451 ], [ 109.162371, 34.308017 ], [ 109.163366, 34.308859 ], [ 109.16492, 34.309085 ], [ 109.16606, 34.308699 ], [ 109.167192, 34.308695 ], [ 109.169259, 34.308434 ], [ 109.170931, 34.307833 ], [ 109.172493, 34.306602 ], [ 109.173704, 34.305649 ], [ 109.175683, 34.303446 ], [ 109.176472, 34.30293 ], [ 109.176941, 34.302936 ], [ 109.177523, 34.303529 ], [ 109.178747, 34.304193 ], [ 109.180006, 34.30465 ], [ 109.181481, 34.305098 ], [ 109.182478, 34.305022 ], [ 109.182506, 34.304798 ], [ 109.182201, 34.304522 ], [ 109.18168, 34.304161 ], [ 109.181637, 34.303631 ], [ 109.181715, 34.303132 ], [ 109.181811, 34.303042 ], [ 109.182956, 34.303025 ], [ 109.185491, 34.303008 ], [ 109.186185, 34.302719 ], [ 109.186194, 34.302189 ], [ 109.185109, 34.301252 ], [ 109.184484, 34.300523 ], [ 109.184372, 34.300045 ], [ 109.184458, 34.299789 ], [ 109.185465, 34.299609 ], [ 109.187158, 34.299763 ], [ 109.188399, 34.299737 ], [ 109.189067, 34.299306 ], [ 109.190082, 34.298509 ], [ 109.190811, 34.298218 ], [ 109.191315, 34.298264 ], [ 109.1924, 34.298588 ], [ 109.194883, 34.299776 ], [ 109.195855, 34.300426 ], [ 109.196106, 34.300878 ], [ 109.195915, 34.301199 ], [ 109.195438, 34.301672 ], [ 109.194214, 34.301985 ], [ 109.192895, 34.301983 ], [ 109.19227, 34.30212 ], [ 109.191853, 34.302565 ], [ 109.191576, 34.3034 ], [ 109.19148, 34.304482 ], [ 109.19168, 34.305978 ], [ 109.191723, 34.30662 ], [ 109.191854, 34.307296 ], [ 109.192174, 34.307595 ], [ 109.193997, 34.307695 ], [ 109.194839, 34.307494 ], [ 109.195255, 34.306865 ], [ 109.195507, 34.305739 ], [ 109.196401, 34.305181 ], [ 109.198163, 34.304884 ], [ 109.199143, 34.304836 ], [ 109.199933, 34.304322 ], [ 109.200758, 34.304194 ], [ 109.202312, 34.30444 ], [ 109.203588, 34.304727 ], [ 109.205428, 34.305093 ], [ 109.207971, 34.305249 ], [ 109.210098, 34.305371 ], [ 109.210843, 34.30562 ], [ 109.212232, 34.307831 ], [ 109.212858, 34.30978 ], [ 109.213491, 34.310433 ], [ 109.21468, 34.310801 ], [ 109.215279, 34.311392 ], [ 109.216815, 34.311899 ], [ 109.218525, 34.312585 ], [ 109.219184, 34.313266 ], [ 109.21934, 34.314163 ], [ 109.22046, 34.314665 ], [ 109.221458, 34.316232 ], [ 109.2221, 34.316556 ], [ 109.222812, 34.316531 ], [ 109.224027, 34.31642 ], [ 109.22644, 34.316902 ], [ 109.228644, 34.317157 ], [ 109.229503, 34.317282 ], [ 109.230058, 34.317435 ], [ 109.230918, 34.318531 ], [ 109.231057, 34.319198 ], [ 109.230683, 34.321049 ], [ 109.230658, 34.32174 ], [ 109.231039, 34.322159 ], [ 109.231569, 34.322185 ], [ 109.232272, 34.322029 ], [ 109.233226, 34.321555 ], [ 109.234086, 34.320694 ], [ 109.234563, 34.320718 ], [ 109.234945, 34.320965 ], [ 109.234987, 34.322022 ], [ 109.235152, 34.322365 ], [ 109.236871, 34.322646 ], [ 109.237349, 34.322415 ], [ 109.237861, 34.321409 ], [ 109.238303, 34.321353 ], [ 109.238529, 34.321769 ], [ 109.238772, 34.322785 ], [ 109.239206, 34.323635 ], [ 109.240586, 34.323978 ], [ 109.241618, 34.324234 ], [ 109.242547, 34.32418 ], [ 109.243224, 34.324365 ], [ 109.244152, 34.323902 ], [ 109.244908, 34.323782 ], [ 109.24594, 34.324357 ], [ 109.24699, 34.324695 ], [ 109.248231, 34.324215 ], [ 109.249541, 34.323491 ], [ 109.250384, 34.322996 ], [ 109.250645, 34.322557 ], [ 109.250558, 34.322208 ], [ 109.24995, 34.321774 ], [ 109.249299, 34.321509 ], [ 109.249004, 34.321254 ], [ 109.249004, 34.320934 ], [ 109.249889, 34.320311 ], [ 109.249881, 34.31951 ], [ 109.25021, 34.318245 ], [ 109.250549, 34.318128 ], [ 109.251303, 34.318324 ], [ 109.252388, 34.318753 ], [ 109.253187, 34.319546 ], [ 109.253812, 34.319952 ], [ 109.254576, 34.320315 ], [ 109.255105, 34.321534 ], [ 109.255435, 34.321913 ], [ 109.255921, 34.321922 ], [ 109.256737, 34.321614 ], [ 109.25836, 34.320855 ], [ 109.259227, 34.320765 ], [ 109.261354, 34.321869 ], [ 109.263654, 34.322197 ], [ 109.265406, 34.322459 ], [ 109.265771, 34.323242 ], [ 109.266179, 34.32523 ], [ 109.266795, 34.325984 ], [ 109.267715, 34.326285 ], [ 109.268722, 34.327058 ], [ 109.269277, 34.327345 ], [ 109.269867, 34.327297 ], [ 109.270092, 34.327035 ], [ 109.27044, 34.325384 ], [ 109.271161, 34.323756 ], [ 109.272106, 34.321939 ], [ 109.272306, 34.32114 ], [ 109.272219, 34.320678 ], [ 109.271829, 34.320149 ], [ 109.271082, 34.319533 ], [ 109.271099, 34.318473 ], [ 109.270822, 34.317495 ], [ 109.270206, 34.316655 ], [ 109.269981, 34.317118 ], [ 109.269642, 34.317371 ], [ 109.268688, 34.317302 ], [ 109.266856, 34.315926 ], [ 109.264886, 34.315886 ], [ 109.262334, 34.316732 ], [ 109.261605, 34.316737 ], [ 109.260876, 34.31647 ], [ 109.260608, 34.315514 ], [ 109.260147, 34.314233 ], [ 109.259488, 34.314022 ], [ 109.258611, 34.3144 ], [ 109.256364, 34.314793 ], [ 109.254585, 34.314599 ], [ 109.253369, 34.314171 ], [ 109.251165, 34.313449 ], [ 109.250402, 34.313228 ], [ 109.245567, 34.310718 ], [ 109.244158, 34.308347 ], [ 109.242276, 34.307026 ], [ 109.239311, 34.305655 ], [ 109.235019, 34.303023 ], [ 109.23034, 34.300842 ], [ 109.228758, 34.299177 ], [ 109.224351, 34.297174 ], [ 109.221795, 34.296513 ], [ 109.217287, 34.295264 ], [ 109.214067, 34.293048 ], [ 109.211728, 34.290329 ], [ 109.208556, 34.285963 ], [ 109.207858, 34.284781 ], [ 109.207233, 34.284028 ], [ 109.206599, 34.283407 ], [ 109.205906, 34.28272 ], [ 109.205211, 34.282336 ], [ 109.2048, 34.282163 ], [ 109.203624, 34.282229 ], [ 109.202594, 34.282916 ], [ 109.201847, 34.283835 ], [ 109.20158, 34.284696 ], [ 109.201382, 34.28573 ], [ 109.20139, 34.286994 ], [ 109.20113, 34.288024 ], [ 109.200787, 34.288886 ], [ 109.200451, 34.289223 ], [ 109.199353, 34.289696 ], [ 109.198247, 34.28976 ], [ 109.197071, 34.289588 ], [ 109.195408, 34.289031 ], [ 109.193677, 34.2887 ], [ 109.192083, 34.288253 ], [ 109.190152, 34.287918 ], [ 109.187864, 34.28713 ], [ 109.186201, 34.286454 ], [ 109.184881, 34.285713 ], [ 109.183356, 34.284699 ], [ 109.182242, 34.283898 ], [ 109.182036, 34.28362 ], [ 109.18124, 34.282957 ], [ 109.177153, 34.279767 ], [ 109.173727, 34.27781 ], [ 109.16892, 34.274637 ], [ 109.162612, 34.269618 ], [ 109.156967, 34.264234 ], [ 109.154467, 34.261379 ], [ 109.15371, 34.259949 ], [ 109.152265, 34.258216 ], [ 109.149334, 34.256281 ], [ 109.148641, 34.256004 ], [ 109.146778, 34.254419 ], [ 109.146806, 34.253148 ], [ 109.146782, 34.25232 ], [ 109.14638, 34.251563 ], [ 109.145521, 34.250758 ], [ 109.144487, 34.248883 ], [ 109.144753, 34.247101 ], [ 109.145511, 34.24453 ], [ 109.146108, 34.243729 ], [ 109.147651, 34.241418 ], [ 109.148035, 34.239619 ], [ 109.149788, 34.23748 ], [ 109.149815, 34.236531 ], [ 109.148785, 34.234851 ], [ 109.148352, 34.233362 ], [ 109.148243, 34.232576 ], [ 109.148297, 34.231059 ], [ 109.148893, 34.22992 ], [ 109.151197, 34.227537 ], [ 109.15327, 34.226305 ], [ 109.156609, 34.224391 ], [ 109.160816, 34.222014 ], [ 109.16305, 34.221119 ], [ 109.165083, 34.220673 ], [ 109.166871, 34.220348 ], [ 109.16809, 34.220084 ], [ 109.169168, 34.219921 ], [ 109.170102, 34.219767 ], [ 109.172545, 34.21904 ], [ 109.173521, 34.218659 ], [ 109.173994, 34.218384 ], [ 109.175511, 34.217021 ], [ 109.176086, 34.216756 ], [ 109.177645, 34.215893 ], [ 109.17827, 34.215618 ], [ 109.178681, 34.215314 ], [ 109.181422, 34.212555 ], [ 109.181891, 34.211806 ], [ 109.182099, 34.211351 ], [ 109.181743, 34.21021 ], [ 109.181387, 34.209636 ], [ 109.180623, 34.208779 ], [ 109.180275, 34.208493 ], [ 109.179104, 34.207936 ], [ 109.177299, 34.207598 ], [ 109.17564, 34.207207 ], [ 109.173982, 34.206762 ], [ 109.172463, 34.206369 ], [ 109.170528, 34.206041 ], [ 109.169008, 34.205872 ], [ 109.166942, 34.205596 ], [ 109.165355, 34.205494 ], [ 109.163549, 34.205164 ], [ 109.162654, 34.204941 ], [ 109.16196, 34.204426 ], [ 109.161335, 34.204201 ], [ 109.161058, 34.203742 ], [ 109.16077, 34.203169 ], [ 109.160424, 34.202606 ], [ 109.160215, 34.202091 ], [ 109.160007, 34.201518 ], [ 109.159928, 34.200951 ], [ 109.15992, 34.200435 ], [ 109.160128, 34.199798 ], [ 109.160189, 34.199341 ], [ 109.160389, 34.198949 ], [ 109.160728, 34.198257 ], [ 109.161204, 34.197339 ], [ 109.161682, 34.196759 ], [ 109.16216, 34.196362 ], [ 109.162845, 34.195838 ], [ 109.163392, 34.195603 ], [ 109.164078, 34.195318 ], [ 109.164694, 34.195145 ], [ 109.165935, 34.194967 ], [ 109.167386, 34.194895 ], [ 109.168566, 34.19495 ], [ 109.16959, 34.195003 ], [ 109.170632, 34.194993 ], [ 109.171934, 34.194932 ], [ 109.173115, 34.194802 ], [ 109.173662, 34.194687 ], [ 109.175111, 34.194561 ], [ 109.176005, 34.194162 ], [ 109.176552, 34.193871 ], [ 109.17703, 34.193409 ], [ 109.177368, 34.193008 ], [ 109.177646, 34.192547 ], [ 109.177776, 34.19209 ], [ 109.177768, 34.191349 ], [ 109.17775, 34.189969 ], [ 109.177473, 34.189633 ], [ 109.176778, 34.189179 ], [ 109.176223, 34.188841 ], [ 109.175745, 34.188615 ], [ 109.175051, 34.188502 ], [ 109.174009, 34.188337 ], [ 109.173462, 34.188283 ], [ 109.172698, 34.188224 ], [ 109.171734, 34.188229 ], [ 109.171048, 34.188293 ], [ 109.170354, 34.188302 ], [ 109.16953, 34.188253 ], [ 109.16815, 34.188025 ], [ 109.167186, 34.187866 ], [ 109.166075, 34.187351 ], [ 109.165449, 34.187007 ], [ 109.164894, 34.186616 ], [ 109.16413, 34.186108 ], [ 109.163644, 34.185763 ], [ 109.163019, 34.185194 ], [ 109.162534, 34.184566 ], [ 109.161761, 34.183312 ], [ 109.161405, 34.182569 ], [ 109.160918, 34.181606 ], [ 109.160355, 34.180065 ], [ 109.160007, 34.179268 ], [ 109.159572, 34.178176 ], [ 109.159226, 34.177498 ], [ 109.158322, 34.175115 ], [ 109.156675, 34.176658 ], [ 109.155229, 34.17699 ], [ 109.15159, 34.177687 ], [ 109.150005, 34.178949 ], [ 109.148858, 34.179008 ], [ 109.147513, 34.178529 ], [ 109.145486, 34.17822 ], [ 109.141989, 34.178167 ], [ 109.140442, 34.178109 ], [ 109.13871, 34.178082 ], [ 109.13711, 34.178537 ], [ 109.135519, 34.179818 ], [ 109.135275, 34.179968 ], [ 109.134335, 34.180309 ], [ 109.133115, 34.180589 ], [ 109.132115, 34.18087 ], [ 109.130833, 34.180728 ], [ 109.129475, 34.180532 ], [ 109.12862, 34.180577 ], [ 109.127338, 34.180558 ], [ 109.126048, 34.180538 ], [ 109.12498, 34.180585 ], [ 109.123805, 34.180381 ], [ 109.122492, 34.180068 ], [ 109.121042, 34.179538 ], [ 109.118883, 34.17853 ], [ 109.117181, 34.178026 ], [ 109.115762, 34.177772 ], [ 109.11448, 34.177572 ], [ 109.112839, 34.177369 ], [ 109.111557, 34.177465 ], [ 109.110336, 34.177506 ], [ 109.109626, 34.177557 ], [ 109.108687, 34.177895 ], [ 109.107672, 34.17847 ], [ 109.105124, 34.180685 ], [ 109.10375, 34.181437 ], [ 109.102742, 34.181834 ], [ 109.101872, 34.182417 ], [ 109.101002, 34.183235 ], [ 109.100118, 34.184287 ], [ 109.099461, 34.185108 ], [ 109.098652, 34.186046 ], [ 109.097927, 34.186686 ], [ 109.097262, 34.187326 ], [ 109.097197, 34.187515 ], [ 109.095151, 34.190118 ], [ 109.093139, 34.190976 ], [ 109.089445, 34.19146 ], [ 109.087277, 34.191829 ], [ 109.084445, 34.191314 ], [ 109.082225, 34.190674 ], [ 109.081421, 34.191023 ], [ 109.080572, 34.191617 ], [ 109.078759, 34.193247 ], [ 109.078268, 34.193497 ], [ 109.077667, 34.193357 ], [ 109.077224, 34.192305 ], [ 109.077215, 34.191888 ], [ 109.077138, 34.190863 ], [ 109.077276, 34.190461 ], [ 109.077754, 34.189891 ], [ 109.078579, 34.189135 ], [ 109.079187, 34.188569 ], [ 109.08055, 34.186558 ], [ 109.080654, 34.184501 ], [ 109.080654, 34.184369 ], [ 109.080775, 34.183364 ], [ 109.080602, 34.18128 ], [ 109.079342, 34.180054 ], [ 109.076478, 34.179517 ], [ 109.075114, 34.178136 ], [ 109.07455, 34.177826 ], [ 109.074272, 34.177318 ], [ 109.074125, 34.176745 ], [ 109.074185, 34.175367 ], [ 109.074445, 34.174282 ], [ 109.074585, 34.173425 ], [ 109.074576, 34.173021 ], [ 109.074567, 34.172334 ], [ 109.074429, 34.171993 ], [ 109.07415, 34.171539 ], [ 109.072839, 34.170806 ], [ 109.071867, 34.170467 ], [ 109.070348, 34.169954 ], [ 109.069922, 34.169922 ], [ 109.06783, 34.169135 ], [ 109.065199, 34.168996 ], [ 109.063053, 34.169038 ], [ 109.060756, 34.170365 ], [ 109.060519, 34.170652 ], [ 109.059902, 34.171283 ], [ 109.059653, 34.171509 ], [ 109.058802, 34.172207 ], [ 109.057771, 34.172986 ], [ 109.057345, 34.173256 ], [ 109.057182, 34.17339 ], [ 109.057087, 34.173514 ], [ 109.057035, 34.173795 ], [ 109.056851, 34.174198 ], [ 109.056254, 34.175022 ], [ 109.05593, 34.17539 ], [ 109.05579, 34.175626 ], [ 109.055719, 34.175889 ], [ 109.055684, 34.176441 ], [ 109.055614, 34.176731 ], [ 109.055456, 34.177081 ], [ 109.055228, 34.177739 ], [ 109.05514, 34.178194 ], [ 109.05522, 34.179177 ], [ 109.055221, 34.179587 ], [ 109.055159, 34.179958 ], [ 109.054936, 34.180827 ], [ 109.054594, 34.182313 ], [ 109.054143, 34.183652 ], [ 109.053755, 34.184427 ], [ 109.053456, 34.184825 ], [ 109.053051, 34.185202 ], [ 109.052573, 34.185554 ], [ 109.051894, 34.186004 ], [ 109.05137, 34.18642 ], [ 109.051301, 34.186509 ], [ 109.051162, 34.18669 ], [ 109.050669, 34.187945 ], [ 109.050572, 34.188333 ], [ 109.050457, 34.18863 ], [ 109.049957, 34.189663 ], [ 109.049335, 34.190694 ], [ 109.048816, 34.191459 ], [ 109.048699, 34.191703 ], [ 109.0485, 34.19224 ], [ 109.048354, 34.192535 ], [ 109.048124, 34.192873 ], [ 109.047891, 34.193129 ], [ 109.047113, 34.193772 ], [ 109.046887, 34.193963 ], [ 109.046594, 34.194254 ], [ 109.046405, 34.194488 ], [ 109.046269, 34.194718 ], [ 109.045457, 34.196366 ], [ 109.04501, 34.197318 ], [ 109.044906, 34.19765 ], [ 109.044859, 34.198169 ], [ 109.044798, 34.198414 ], [ 109.044503, 34.198867 ], [ 109.044215, 34.1995 ], [ 109.043863, 34.200119 ], [ 109.043454, 34.201087 ], [ 109.043267, 34.201683 ], [ 109.043168, 34.202764 ], [ 109.043138, 34.203549 ], [ 109.043085, 34.203958 ], [ 109.0428, 34.205204 ], [ 109.04269, 34.205552 ], [ 109.042493, 34.206043 ], [ 109.042391, 34.206375 ], [ 109.042345, 34.206814 ], [ 109.04236, 34.207134 ], [ 109.042407, 34.207494 ], [ 109.042493, 34.207897 ], [ 109.043104, 34.210061 ], [ 109.043486, 34.2107 ], [ 109.044348, 34.211754 ], [ 109.044496, 34.21217 ], [ 109.044496, 34.212357 ], [ 109.044495, 34.212373 ], [ 109.044496, 34.212391 ], [ 109.044496, 34.21248 ], [ 109.044495, 34.212496 ], [ 109.044496, 34.212512 ], [ 109.044496, 34.212541 ], [ 109.044318, 34.212779 ], [ 109.043503, 34.213257 ], [ 109.043336, 34.213534 ], [ 109.043254, 34.213707 ], [ 109.043219, 34.213813 ], [ 109.043193, 34.213929 ], [ 109.043088, 34.215858 ], [ 109.043144, 34.216447 ], [ 109.043635, 34.217813 ], [ 109.043665, 34.218229 ], [ 109.043708, 34.219565 ], [ 109.043797, 34.21997 ], [ 109.044159, 34.220603 ], [ 109.044374, 34.221065 ], [ 109.044501, 34.221547 ], [ 109.044539, 34.222073 ], [ 109.044494, 34.222568 ], [ 109.044406, 34.223074 ], [ 109.044393, 34.223701 ], [ 109.044526, 34.224126 ], [ 109.044704, 34.224777 ], [ 109.044729, 34.225038 ], [ 109.044647, 34.225456 ], [ 109.044343, 34.226361 ], [ 109.043981, 34.227261 ], [ 109.043886, 34.227774 ], [ 109.043969, 34.228332 ], [ 109.044178, 34.229326 ], [ 109.044513, 34.230157 ], [ 109.044773, 34.2311 ], [ 109.044956, 34.232475 ], [ 109.044982, 34.233191 ], [ 109.045159, 34.235027 ], [ 109.045161, 34.235052 ], [ 109.045164, 34.235071 ], [ 109.045446, 34.237105 ], [ 109.045565, 34.238249 ], [ 109.045639, 34.238991 ], [ 109.045565, 34.23966 ], [ 109.045191, 34.241128 ], [ 109.045007, 34.241742 ], [ 109.044792, 34.242478 ], [ 109.044792, 34.243725 ], [ 109.044943, 34.244442 ], [ 109.044982, 34.245017 ], [ 109.044735, 34.245916 ], [ 109.044443, 34.246639 ], [ 109.044425, 34.247083 ], [ 109.044538, 34.247747 ], [ 109.044532, 34.248407 ], [ 109.044323, 34.249135 ], [ 109.044025, 34.249838 ], [ 109.04393, 34.250534 ], [ 109.043683, 34.251162 ], [ 109.043485, 34.251645 ], [ 109.043297, 34.252052 ], [ 109.042728, 34.252749 ], [ 109.02875, 34.252682 ], [ 109.025924, 34.252717 ] ] ] ] } },
{ "type": "Feature", "properties": { "id": "610104", "name": "莲湖区", "site": "www.poi86.com" }, "geometry": { "type": "MultiPolygon", "coordinates": [ [ [ [ 108.948664, 34.294216 ], [ 108.948702, 34.292686 ], [ 108.948749, 34.29267 ], [ 108.948703, 34.292653 ], [ 108.948731, 34.291532 ], [ 108.94871, 34.291094 ], [ 108.946424, 34.291085 ], [ 108.946313, 34.289964 ], [ 108.946238, 34.287848 ], [ 108.946047, 34.287839 ], [ 108.944353, 34.287936 ], [ 108.943867, 34.287605 ], [ 108.943562, 34.287544 ], [ 108.943406, 34.287383 ], [ 108.943177, 34.287145 ], [ 108.942863, 34.28691 ], [ 108.942775, 34.282787 ], [ 108.942691, 34.278858 ], [ 108.942643, 34.276641 ], [ 108.942583, 34.276459 ], [ 108.942615, 34.275236 ], [ 108.94261, 34.275199 ], [ 108.942616, 34.27518 ], [ 108.942623, 34.27337 ], [ 108.942623, 34.273225 ], [ 108.942624, 34.273118 ], [ 108.942613, 34.272675 ], [ 108.942629, 34.271692 ], [ 108.942676, 34.271601 ], [ 108.942671, 34.271374 ], [ 108.942624, 34.271283 ], [ 108.942573, 34.270311 ], [ 108.942587, 34.270216 ], [ 108.942615, 34.269706 ], [ 108.942572, 34.269449 ], [ 108.94255, 34.268586 ], [ 108.942566, 34.268448 ], [ 108.942552, 34.268392 ], [ 108.942576, 34.26768 ], [ 108.942555, 34.266925 ], [ 108.942533, 34.266202 ], [ 108.942574, 34.266177 ], [ 108.942502, 34.266096 ], [ 108.942535, 34.266062 ], [ 108.94251, 34.266019 ], [ 108.942533, 34.265845 ], [ 108.942539, 34.263354 ], [ 108.942541, 34.262966 ], [ 108.942514, 34.261824 ], [ 108.942886, 34.261395 ], [ 108.942911, 34.26093 ], [ 108.942373, 34.260829 ], [ 108.94053, 34.260684 ], [ 108.93907, 34.260629 ], [ 108.931857, 34.260637 ], [ 108.931409, 34.260696 ], [ 108.931466, 34.252684 ], [ 108.931471, 34.252507 ], [ 108.931412, 34.252505 ], [ 108.931353, 34.252509 ], [ 108.929461, 34.252501 ], [ 108.928939, 34.252494 ], [ 108.928457, 34.252495 ], [ 108.928418, 34.252458 ], [ 108.92834, 34.252495 ], [ 108.927677, 34.252496 ], [ 108.927632, 34.252476 ], [ 108.927583, 34.252496 ], [ 108.927205, 34.252496 ], [ 108.927008, 34.252481 ], [ 108.92693, 34.252497 ], [ 108.925167, 34.2525 ], [ 108.924847, 34.252497 ], [ 108.924639, 34.252502 ], [ 108.923558, 34.252503 ], [ 108.918661, 34.252516 ], [ 108.918651, 34.250681 ], [ 108.915746, 34.250617 ], [ 108.915768, 34.250228 ], [ 108.914637, 34.249849 ], [ 108.910289, 34.249554 ], [ 108.907807, 34.248329 ], [ 108.906836, 34.247713 ], [ 108.906785, 34.247663 ], [ 108.906717, 34.247638 ], [ 108.905846, 34.247086 ], [ 108.905386, 34.247029 ], [ 108.90545, 34.243141 ], [ 108.905491, 34.242637 ], [ 108.90545, 34.24188 ], [ 108.905154, 34.241398 ], [ 108.905049, 34.241229 ], [ 108.904972, 34.241162 ], [ 108.9049, 34.240986 ], [ 108.89795, 34.244038 ], [ 108.89588, 34.244946 ], [ 108.895641, 34.24505 ], [ 108.893023, 34.240954 ], [ 108.891157, 34.241733 ], [ 108.890535, 34.240722 ], [ 108.890515, 34.240722 ], [ 108.887489, 34.240739 ], [ 108.886331, 34.239871 ], [ 108.88632, 34.239579 ], [ 108.885236, 34.23957 ], [ 108.885236, 34.239011 ], [ 108.883434, 34.238999 ], [ 108.883391, 34.241269 ], [ 108.880601, 34.241231 ], [ 108.880536, 34.243041 ], [ 108.880322, 34.24366 ], [ 108.880406, 34.244068 ], [ 108.880772, 34.244423 ], [ 108.88103, 34.24453 ], [ 108.881888, 34.244566 ], [ 108.883195, 34.245471 ], [ 108.883439, 34.245612 ], [ 108.883459, 34.246061 ], [ 108.883438, 34.246668 ], [ 108.883418, 34.246812 ], [ 108.882272, 34.246869 ], [ 108.88159, 34.246844 ], [ 108.881491, 34.246899 ], [ 108.881412, 34.246898 ], [ 108.880457, 34.246884 ], [ 108.880192, 34.24688 ], [ 108.878429, 34.246857 ], [ 108.87723, 34.246891 ], [ 108.877244, 34.249597 ], [ 108.877244, 34.249652 ], [ 108.87724, 34.250024 ], [ 108.877276, 34.250932 ], [ 108.879433, 34.251509 ], [ 108.880404, 34.251518 ], [ 108.883494, 34.251627 ], [ 108.883473, 34.252111 ], [ 108.883473, 34.252288 ], [ 108.88347, 34.253228 ], [ 108.883469, 34.253361 ], [ 108.883469, 34.253501 ], [ 108.883468, 34.253685 ], [ 108.88343, 34.253889 ], [ 108.883422, 34.253933 ], [ 108.877276, 34.25393 ], [ 108.872049, 34.253931 ], [ 108.867652, 34.253931 ], [ 108.86078, 34.253932 ], [ 108.855205, 34.253908 ], [ 108.849983, 34.253905 ], [ 108.84992, 34.256295 ], [ 108.849818, 34.259066 ], [ 108.849777, 34.260795 ], [ 108.849784, 34.260824 ], [ 108.849772, 34.260877 ], [ 108.849774, 34.260908 ], [ 108.849743, 34.262165 ], [ 108.84967, 34.266041 ], [ 108.849662, 34.266421 ], [ 108.849631, 34.266508 ], [ 108.849661, 34.266545 ], [ 108.849636, 34.267895 ], [ 108.84959, 34.268248 ], [ 108.84959, 34.270364 ], [ 108.849493, 34.273846 ], [ 108.849425, 34.276708 ], [ 108.849402, 34.277249 ], [ 108.849322, 34.280531 ], [ 108.849294, 34.281679 ], [ 108.849249, 34.281766 ], [ 108.84929, 34.281836 ], [ 108.849214, 34.284935 ], [ 108.849197, 34.285032 ], [ 108.849215, 34.285136 ], [ 108.84922, 34.288512 ], [ 108.849343, 34.28907 ], [ 108.849679, 34.289828 ], [ 108.849984, 34.290218 ], [ 108.850711, 34.290673 ], [ 108.851936, 34.2911 ], [ 108.850646, 34.291824 ], [ 108.850518, 34.292285 ], [ 108.850495, 34.29356 ], [ 108.850539, 34.294199 ], [ 108.852509, 34.293796 ], [ 108.870623, 34.291268 ], [ 108.870672, 34.291287 ], [ 108.870713, 34.291264 ], [ 108.878545, 34.291141 ], [ 108.878673, 34.291197 ], [ 108.878928, 34.291268 ], [ 108.879231, 34.291292 ], [ 108.879848, 34.291303 ], [ 108.881019, 34.291278 ], [ 108.881669, 34.291273 ], [ 108.882207, 34.291257 ], [ 108.882665, 34.29125 ], [ 108.883047, 34.291268 ], [ 108.883799, 34.291249 ], [ 108.884167, 34.291229 ], [ 108.884328, 34.291215 ], [ 108.884453, 34.291212 ], [ 108.885316, 34.291208 ], [ 108.88739, 34.291213 ], [ 108.88798, 34.293669 ], [ 108.889385, 34.293687 ], [ 108.892045, 34.293847 ], [ 108.89381, 34.294148 ], [ 108.900488, 34.2941 ], [ 108.906647, 34.294147 ], [ 108.908854, 34.294136 ], [ 108.917531, 34.294229 ], [ 108.917693, 34.29423 ], [ 108.920545, 34.294161 ], [ 108.921089, 34.294079 ], [ 108.926927, 34.294225 ], [ 108.92708, 34.294273 ], [ 108.929562, 34.294267 ], [ 108.929604, 34.294256 ], [ 108.929644, 34.294267 ], [ 108.934255, 34.294254 ], [ 108.938832, 34.294269 ], [ 108.938866, 34.294257 ], [ 108.938895, 34.294269 ], [ 108.940088, 34.294272 ], [ 108.940112, 34.294256 ], [ 108.940139, 34.294273 ], [ 108.942403, 34.29428 ], [ 108.94246, 34.294253 ], [ 108.942686, 34.294249 ], [ 108.942715, 34.294279 ], [ 108.945002, 34.294255 ], [ 108.948664, 34.294216 ] ] ] ] } },
{ "type": "Feature", "properties": { "id": "610112", "name": "未央区", "site": "www.poi86.com" }, "geometry": { "type": "MultiPolygon", "coordinates": [ [ [ [ 108.990943, 34.29544 ], [ 108.990934, 34.295797 ], [ 108.990932, 34.295805 ], [ 108.990934, 34.295809 ], [ 108.990924, 34.296226 ], [ 108.990445, 34.296261 ], [ 108.989534, 34.296366 ], [ 108.988874, 34.29655 ], [ 108.988833, 34.296558 ], [ 108.988845, 34.296616 ], [ 108.988788, 34.296574 ], [ 108.986557, 34.297195 ], [ 108.985471, 34.297487 ], [ 108.984432, 34.297604 ], [ 108.97798, 34.297657 ], [ 108.975852, 34.297674 ], [ 108.975747, 34.297651 ], [ 108.975669, 34.297552 ], [ 108.975583, 34.297278 ], [ 108.975536, 34.297219 ], [ 108.97534, 34.297466 ], [ 108.974998, 34.297833 ], [ 108.974826, 34.298056 ], [ 108.974725, 34.2983 ], [ 108.974538, 34.298285 ], [ 108.972277, 34.298219 ], [ 108.968305, 34.297831 ], [ 108.968305, 34.297255 ], [ 108.968989, 34.297237 ], [ 108.969008, 34.295417 ], [ 108.968125, 34.294373 ], [ 108.966864, 34.29441 ], [ 108.966883, 34.295634 ], [ 108.964165, 34.295605 ], [ 108.962434, 34.295259 ], [ 108.962362, 34.294227 ], [ 108.956784, 34.294222 ], [ 108.956705, 34.294222 ], [ 108.956627, 34.294222 ], [ 108.951151, 34.294217 ], [ 108.95096, 34.299404 ], [ 108.947311, 34.299561 ], [ 108.947311, 34.299294 ], [ 108.946802, 34.299288 ], [ 108.946758, 34.297836 ], [ 108.946356, 34.296369 ], [ 108.946087, 34.294791 ], [ 108.945108, 34.294783 ], [ 108.945002, 34.294255 ], [ 108.942715, 34.294279 ], [ 108.942686, 34.294249 ], [ 108.94246, 34.294253 ], [ 108.942403, 34.29428 ], [ 108.940139, 34.294273 ], [ 108.940112, 34.294256 ], [ 108.940088, 34.294272 ], [ 108.938895, 34.294269 ], [ 108.938866, 34.294257 ], [ 108.938832, 34.294269 ], [ 108.934255, 34.294254 ], [ 108.929644, 34.294267 ], [ 108.929604, 34.294256 ], [ 108.929562, 34.294267 ], [ 108.92708, 34.294273 ], [ 108.926927, 34.294225 ], [ 108.921089, 34.294079 ], [ 108.920545, 34.294161 ], [ 108.917693, 34.29423 ], [ 108.917531, 34.294229 ], [ 108.908854, 34.294136 ], [ 108.906647, 34.294147 ], [ 108.900488, 34.2941 ], [ 108.89381, 34.294148 ], [ 108.892045, 34.293847 ], [ 108.889385, 34.293687 ], [ 108.88798, 34.293669 ], [ 108.88739, 34.291213 ], [ 108.885316, 34.291208 ], [ 108.884453, 34.291212 ], [ 108.884328, 34.291215 ], [ 108.884167, 34.291229 ], [ 108.883799, 34.291249 ], [ 108.883047, 34.291268 ], [ 108.882665, 34.29125 ], [ 108.882207, 34.291257 ], [ 108.881669, 34.291273 ], [ 108.881019, 34.291278 ], [ 108.879848, 34.291303 ], [ 108.879231, 34.291292 ], [ 108.878928, 34.291268 ], [ 108.878673, 34.291197 ], [ 108.878545, 34.291141 ], [ 108.870713, 34.291264 ], [ 108.870672, 34.291287 ], [ 108.870623, 34.291268 ], [ 108.852509, 34.293796 ], [ 108.850539, 34.294199 ], [ 108.850495, 34.29356 ], [ 108.850518, 34.292285 ], [ 108.850646, 34.291824 ], [ 108.851936, 34.2911 ], [ 108.850711, 34.290673 ], [ 108.849984, 34.290218 ], [ 108.849679, 34.289828 ], [ 108.849343, 34.28907 ], [ 108.84922, 34.288512 ], [ 108.849215, 34.285136 ], [ 108.849197, 34.285032 ], [ 108.849214, 34.284935 ], [ 108.84929, 34.281836 ], [ 108.849249, 34.281766 ], [ 108.849294, 34.281679 ], [ 108.849322, 34.280531 ], [ 108.849402, 34.277249 ], [ 108.849425, 34.276708 ], [ 108.849493, 34.273846 ], [ 108.84959, 34.270364 ], [ 108.84959, 34.268248 ], [ 108.849636, 34.267895 ], [ 108.849661, 34.266545 ], [ 108.849631, 34.266508 ], [ 108.849662, 34.266421 ], [ 108.84967, 34.266041 ], [ 108.849743, 34.262165 ], [ 108.849774, 34.260908 ], [ 108.849772, 34.260877 ], [ 108.849784, 34.260824 ], [ 108.849777, 34.260795 ], [ 108.849818, 34.259066 ], [ 108.84992, 34.256295 ], [ 108.848572, 34.255797 ], [ 108.848547, 34.255383 ], [ 108.848344, 34.255403 ], [ 108.848344, 34.254053 ], [ 108.842637, 34.254034 ], [ 108.842185, 34.255193 ], [ 108.840905, 34.254875 ], [ 108.838354, 34.254239 ], [ 108.838323, 34.253539 ], [ 108.83833, 34.253496 ], [ 108.83832, 34.253469 ], [ 108.838257, 34.252002 ], [ 108.837056, 34.252034 ], [ 108.836992, 34.251321 ], [ 108.836778, 34.25132 ], [ 108.836761, 34.251296 ], [ 108.836738, 34.25132 ], [ 108.832116, 34.251293 ], [ 108.831361, 34.251322 ], [ 108.830423, 34.251076 ], [ 108.82972, 34.250577 ], [ 108.828698, 34.250094 ], [ 108.828632, 34.250088 ], [ 108.828581, 34.249989 ], [ 108.82591, 34.24861 ], [ 108.823661, 34.248054 ], [ 108.822803, 34.248131 ], [ 108.822043, 34.248825 ], [ 108.820876, 34.252489 ], [ 108.818185, 34.250251 ], [ 108.806352, 34.250326 ], [ 108.807029, 34.251708 ], [ 108.808166, 34.258015 ], [ 108.807619, 34.262783 ], [ 108.807159, 34.263605 ], [ 108.807107, 34.264484 ], [ 108.808201, 34.266034 ], [ 108.810102, 34.267945 ], [ 108.810814, 34.269382 ], [ 108.811612, 34.271338 ], [ 108.811786, 34.272884 ], [ 108.81222, 34.277238 ], [ 108.800819, 34.277187 ], [ 108.800083, 34.2777 ], [ 108.799806, 34.278198 ], [ 108.79892, 34.281577 ], [ 108.79859, 34.284097 ], [ 108.798382, 34.285425 ], [ 108.796828, 34.287907 ], [ 108.79075, 34.290147 ], [ 108.788771, 34.292768 ], [ 108.787703, 34.294694 ], [ 108.78858, 34.295327 ], [ 108.790238, 34.295872 ], [ 108.791158, 34.296455 ], [ 108.791341, 34.296763 ], [ 108.790538, 34.298154 ], [ 108.792074, 34.298186 ], [ 108.791957, 34.300668 ], [ 108.791298, 34.300678 ], [ 108.790623, 34.305828 ], [ 108.78818, 34.305804 ], [ 108.788072, 34.309927 ], [ 108.792633, 34.308966 ], [ 108.792481, 34.315018 ], [ 108.79164, 34.317776 ], [ 108.791601, 34.319534 ], [ 108.79128, 34.320558 ], [ 108.790759, 34.323123 ], [ 108.79121, 34.326178 ], [ 108.791002, 34.327372 ], [ 108.790455, 34.328796 ], [ 108.789778, 34.330692 ], [ 108.789508, 34.332123 ], [ 108.789378, 34.333672 ], [ 108.789369, 34.334004 ], [ 108.789595, 34.335603 ], [ 108.79161, 34.336754 ], [ 108.794057, 34.33787 ], [ 108.794769, 34.339646 ], [ 108.793076, 34.341676 ], [ 108.791791, 34.342606 ], [ 108.791921, 34.343379 ], [ 108.792759, 34.343778 ], [ 108.797466, 34.344624 ], [ 108.797816, 34.345439 ], [ 108.798016, 34.347537 ], [ 108.797721, 34.349067 ], [ 108.797617, 34.349215 ], [ 108.797061, 34.349551 ], [ 108.795958, 34.349892 ], [ 108.795412, 34.350841 ], [ 108.79744, 34.354814 ], [ 108.798554, 34.360981 ], [ 108.801115, 34.363424 ], [ 108.806943, 34.368347 ], [ 108.80991, 34.370075 ], [ 108.813174, 34.369836 ], [ 108.823415, 34.367396 ], [ 108.828294, 34.368915 ], [ 108.829685, 34.370087 ], [ 108.83069, 34.372014 ], [ 108.832953, 34.373607 ], [ 108.836975, 34.375199 ], [ 108.8384, 34.376289 ], [ 108.839909, 34.377797 ], [ 108.842183, 34.379871 ], [ 108.844686, 34.382323 ], [ 108.847702, 34.383914 ], [ 108.850635, 34.385423 ], [ 108.852813, 34.388356 ], [ 108.855244, 34.390199 ], [ 108.857087, 34.390953 ], [ 108.860416, 34.391718 ], [ 108.863169, 34.392028 ], [ 108.866685, 34.392602 ], [ 108.869879, 34.392685 ], [ 108.875177, 34.392997 ], [ 108.880725, 34.391674 ], [ 108.884777, 34.391497 ], [ 108.8883, 34.392378 ], [ 108.892527, 34.394843 ], [ 108.896138, 34.396869 ], [ 108.899749, 34.400567 ], [ 108.9029, 34.40489 ], [ 108.905532, 34.406784 ], [ 108.908858, 34.407616 ], [ 108.918805, 34.406098 ], [ 108.919124, 34.406114 ], [ 108.925201, 34.405936 ], [ 108.929956, 34.408138 ], [ 108.933568, 34.411396 ], [ 108.937267, 34.414303 ], [ 108.94255, 34.415799 ], [ 108.948187, 34.418529 ], [ 108.95413, 34.424044 ], [ 108.956135, 34.425554 ], [ 108.957645, 34.426692 ], [ 108.959928, 34.427558 ], [ 108.963932, 34.429744 ], [ 108.967453, 34.431504 ], [ 108.969693, 34.432304 ], [ 108.970684, 34.432747 ], [ 108.97343, 34.433737 ], [ 108.976265, 34.435808 ], [ 108.978966, 34.437383 ], [ 108.980496, 34.437833 ], [ 108.982748, 34.438553 ], [ 108.986348, 34.439768 ], [ 108.988825, 34.440668 ], [ 108.99157, 34.441298 ], [ 108.99576, 34.441289 ], [ 109.001266, 34.439868 ], [ 109.003264, 34.439557 ], [ 109.009289, 34.440073 ], [ 109.016582, 34.438898 ], [ 109.021374, 34.438651 ], [ 109.020473, 34.436952 ], [ 109.019939, 34.434447 ], [ 109.019629, 34.433378 ], [ 109.019207, 34.431942 ], [ 109.017968, 34.430732 ], [ 109.01597, 34.429831 ], [ 109.014844, 34.429184 ], [ 109.014365, 34.428086 ], [ 109.012873, 34.426256 ], [ 109.01065, 34.425271 ], [ 109.009636, 34.424539 ], [ 109.009046, 34.423582 ], [ 109.009158, 34.422091 ], [ 109.008961, 34.421274 ], [ 109.008145, 34.420627 ], [ 109.007666, 34.419922 ], [ 109.007807, 34.418798 ], [ 109.007638, 34.417418 ], [ 109.007948, 34.415222 ], [ 109.008708, 34.413618 ], [ 109.008989, 34.411114 ], [ 109.008623, 34.409031 ], [ 109.00868, 34.404695 ], [ 109.007808, 34.40219 ], [ 109.006597, 34.39977 ], [ 109.006288, 34.397799 ], [ 109.006456, 34.395689 ], [ 109.006851, 34.392733 ], [ 109.006512, 34.389468 ], [ 109.006228, 34.38763 ], [ 109.005223, 34.384715 ], [ 109.005093, 34.383112 ], [ 109.005353, 34.381855 ], [ 109.006068, 34.379858 ], [ 109.006678, 34.3766 ], [ 109.00676, 34.37511 ], [ 109.006168, 34.372809 ], [ 109.005999, 34.36998 ], [ 109.005979, 34.366434 ], [ 109.006092, 34.361232 ], [ 109.006004, 34.36058 ], [ 109.005662, 34.359616 ], [ 109.005527, 34.358761 ], [ 109.005726, 34.354696 ], [ 109.006147, 34.35134 ], [ 109.006524, 34.348535 ], [ 109.007434, 34.345199 ], [ 109.00817, 34.343378 ], [ 109.009601, 34.341862 ], [ 109.011074, 34.340735 ], [ 109.012678, 34.340086 ], [ 109.013371, 34.339652 ], [ 109.015321, 34.337919 ], [ 109.018094, 34.3361 ], [ 109.020174, 34.33454 ], [ 109.029751, 34.329732 ], [ 109.034345, 34.327175 ], [ 109.039231, 34.323416 ], [ 109.034903, 34.317836 ], [ 109.034685, 34.317404 ], [ 109.034685, 34.31697 ], [ 109.035406, 34.313719 ], [ 109.035336, 34.313428 ], [ 109.035119, 34.313285 ], [ 109.027943, 34.313146 ], [ 109.027473, 34.31309 ], [ 109.026603, 34.312617 ], [ 109.026354, 34.312457 ], [ 109.026411, 34.312313 ], [ 109.029086, 34.311273 ], [ 109.029254, 34.311141 ], [ 109.029311, 34.310953 ], [ 109.028686, 34.309959 ], [ 109.028469, 34.309742 ], [ 109.027462, 34.30902 ], [ 109.026594, 34.308804 ], [ 109.019588, 34.308299 ], [ 109.019076, 34.308007 ], [ 109.018642, 34.307648 ], [ 109.018208, 34.307502 ], [ 109.014744, 34.307576 ], [ 109.014024, 34.30743 ], [ 109.013409, 34.307195 ], [ 109.005189, 34.303843 ], [ 109.005215, 34.303217 ], [ 109.004301, 34.303139 ], [ 109.004327, 34.301754 ], [ 109.002735, 34.301598 ], [ 109.002474, 34.301467 ], [ 109.002393, 34.301229 ], [ 109.002759, 34.297871 ], [ 108.996106, 34.297871 ], [ 108.996106, 34.295415 ], [ 108.990943, 34.29544 ] ] ] ] } }
]
}
